{"type": "FeatureCollection", "features": [{"type": "Feature", "properties": {"nome": "Distrito 2", "num": 2, "romano": "II", "regionais": [2, 7], "cor": "#3F9A52"}, "geometry": {"type": "Polygon", "coordinates": [[[-38.4459955322625, -3.8052123306589287], [-38.45483717349652, -3.806341440946266], [-38.46160374004, -3.807793797721316], [-38.46531355100423, -3.805208075869318], [-38.465887783390514, -3.800827154470929], [-38.479358556294635, -3.801975253372647], [-38.48067771822628, -3.7869236167748404], [-38.48573153467276, -3.7873687290037505], [-38.490797981870664, -3.786736978718283], [-38.4930354329781, -3.7870434238739237], [-38.49491606138272, -3.7865309188091585], [-38.493965324708874, -3.7832815152883073], [-38.49487250960741, -3.7830115309034973], [-38.496454026600865, -3.780634126644404], [-38.49887366858245, -3.779368687624664], [-38.49972913941947, -3.7763626248529594], [-38.502209474827595, -3.7755454373671005], [-38.50592511602904, -3.7723528666090886], [-38.50946612289334, -3.7713527008165686], [-38.50851267432255, -3.7674981946639825], [-38.50610753514701, -3.76241755926774], [-38.510147908198235, -3.7627991693413287], [-38.51403161269347, -3.7624857138564014], [-38.516546686017826, -3.7615791090827355], [-38.51798076036297, -3.760185205020221], [-38.51899789489604, -3.760065813798269], [-38.52392831199689, -3.7369035332867266], [-38.51755352234233, -3.7389135807028526], [-38.51115076362013, -3.7193495848516274], [-38.50913744346861, -3.720589224169006], [-38.504670958060764, -3.7220307925540417], [-38.50415215796384, -3.720496840974258], [-38.50471642846162, -3.722752870228416], [-38.50435113056615, -3.722431129271596], [-38.504180120256216, -3.7231475437042194], [-38.50221400797987, -3.7239124099573715], [-38.49585164211148, -3.7250337279715766], [-38.49472026914766, -3.7245861339738098], [-38.49416986193313, -3.7228919076195925], [-38.49454668884051, -3.7226071220172594], [-38.49388655851067, -3.722625689078261], [-38.49443233191951, -3.7244570915579227], [-38.49252620533214, -3.724624442762482], [-38.49073848760125, -3.7242758373420894], [-38.48852213968202, -3.7224287021434304], [-38.48628653625188, -3.722861973043623], [-38.48458198505582, -3.722289047904807], [-38.48301651730504, -3.7224215657560054], [-38.47889400894059, -3.7206943051803134], [-38.479092883187434, -3.7199351780330843], [-38.47792427745177, -3.720462770181338], [-38.47791686114873, -3.7199648116544677], [-38.4776694801442, -3.720303419315177], [-38.47655127371177, -3.7196041438906224], [-38.4762783195845, -3.719255839166407], [-38.47667870993584, -3.7189723622410917], [-38.47626188429495, -3.7192113863697758], [-38.47598436224424, -3.718176446330031], [-38.47658171694646, -3.7172706945916136], [-38.47753792254473, -3.7172891317837435], [-38.47727271433848, -3.7153169498270033], [-38.48261670400198, -3.7122896513713046], [-38.48332828792429, -3.7098787286196195], [-38.482422670588576, -3.7121989704158675], [-38.477213663678164, -3.7151534606700096], [-38.47524226839922, -3.7122720629378207], [-38.473169736482326, -3.7063871449250665], [-38.47542624709749, -3.7041917704656147], [-38.47480606723552, -3.703514502270733], [-38.476251289082796, -3.701181626640839], [-38.48241672903601, -3.6991154355239124], [-38.48250033848662, -3.6987325414771863], [-38.473587769868935, -3.701635489665688], [-38.470511094914194, -3.706791745149247], [-38.4678301080728, -3.707819362649539], [-38.46715055123087, -3.7086208415217112], [-38.46045935812719, -3.705107655550904], [-38.46403002275504, -3.707541863856134], [-38.46348342153715, -3.712752813772652], [-38.46063247320163, -3.7212069950232167], [-38.456190500156154, -3.731106989691288], [-38.4403877547776, -3.7617393817170113], [-38.43799338153313, -3.7650428059175165], [-38.43586613859411, -3.7690715024805987], [-38.43370018145745, -3.771622267210406], [-38.42094376796717, -3.7940072746444407], [-38.408997671509596, -3.8109433066338796], [-38.40570657440122, -3.8165833160652993], [-38.40221400594219, -3.820860134427799], [-38.40168906019814, -3.8218651006098185], [-38.40190514453463, -3.824297301535361], [-38.401357059128415, -3.826585129518382], [-38.401804478486135, -3.8268613594107315], [-38.40296565748, -3.8264650317886884], [-38.405931140746546, -3.8239857426575616], [-38.40586986917297, -3.8215425213575127], [-38.408414632438394, -3.8196109628124617], [-38.44292920625412, -3.8015499074088437], [-38.44348673242184, -3.8027728667768304], [-38.44437903025722, -3.80339152702658], [-38.444486106406046, -3.804224338237753], [-38.44533081483358, -3.8043671062555147], [-38.4459955322625, -3.8052123306589287]]]}}, {"type": "Feature", "properties": {"nome": "Distrito 6", "num": 6, "romano": "VI", "regionais": [6, 9], "cor": "#8E5572"}, "geometry": {"type": "Polygon", "coordinates": [[[-38.4459955322625, -3.8052123306589287], [-38.443166760524576, -3.8092789383995638], [-38.44221890570946, -3.8116729601876185], [-38.442270782426306, -3.813732036160429], [-38.44260375609223, -3.8157910949944354], [-38.44518967182711, -3.8192661600221562], [-38.44574078305166, -3.8264200621838356], [-38.44988764905279, -3.8378712802021018], [-38.45147675998215, -3.839701164337626], [-38.455908090434406, -3.840731213811997], [-38.45881003839848, -3.8430671314087705], [-38.460894122703905, -3.8428781988894216], [-38.4636241159717, -3.8436112291706035], [-38.46364506203644, -3.842187136223638], [-38.46402005036747, -3.8420821886341807], [-38.46516688177658, -3.843151218926104], [-38.46633395201707, -3.843507177423618], [-38.46731265493592, -3.8453500021961577], [-38.467849908356094, -3.8497012003510367], [-38.46890303895975, -3.8508851916172824], [-38.46962207730083, -3.850183188819359], [-38.47105998975599, -3.8506961346496054], [-38.47145595996817, -3.8515031145036787], [-38.47105991191074, -3.852739012317357], [-38.47130989581333, -3.8536291763576136], [-38.473907047633475, -3.8548223294227215], [-38.474782941580656, -3.8544771247801237], [-38.47568894587121, -3.8550112011893605], [-38.47593859586316, -3.8558170444137905], [-38.475344706889665, -3.8578180091004723], [-38.47777402474733, -3.8592111688416684], [-38.478043911532865, -3.860227011363809], [-38.477345904241844, -3.86121100236596], [-38.47796234758529, -3.862237304793961], [-38.4797126980496, -3.862277088462974], [-38.481009147664786, -3.863735272912795], [-38.48326485152611, -3.863217561807345], [-38.48837538385375, -3.8668181194063274], [-38.48948875509943, -3.871213322588646], [-38.4918809337073, -3.8744611722498483], [-38.4916656124365, -3.8752670344748683], [-38.49267466449642, -3.877913006863592], [-38.4924248589413, -3.8797330727597044], [-38.49394877083008, -3.8827031239022993], [-38.493898796485894, -3.883954174053625], [-38.49595985945943, -3.88543634989261], [-38.49608179458342, -3.886285223347451], [-38.49743400705066, -3.886658293752973], [-38.4982790586336, -3.8875002203274733], [-38.50119114955633, -3.8881763018258764], [-38.5045547109935, -3.888240177021373], [-38.50456194925199, -3.8891129109237292], [-38.50575499932233, -3.890541999547773], [-38.50850499996276, -3.888748000005243], [-38.510855999339164, -3.888697999565884], [-38.512658784741056, -3.8902651256643233], [-38.51406443975817, -3.894603063260081], [-38.531157999648826, -3.8793669995690068], [-38.529775076350994, -3.8783198904172527], [-38.52790699985535, -3.872742999506491], [-38.5266773466508, -3.870945925067332], [-38.52443208507867, -3.8689992125812265], [-38.520515999594366, -3.8672530000196805], [-38.5189539992297, -3.8646110003300613], [-38.54231933327327, -3.8591901822274473], [-38.53949365701642, -3.842011644051178], [-38.53826456228184, -3.8404442523896107], [-38.535852159342866, -3.8431525299909146], [-38.535244582313744, -3.8427049856389437], [-38.535330763405575, -3.84039579526043], [-38.53430876150904, -3.8401181394226156], [-38.534242072788, -3.8390292532052963], [-38.53252660693471, -3.8373616528503907], [-38.53231828688566, -3.8363124362120473], [-38.53042613051759, -3.8336785240190285], [-38.53123237942164, -3.831710073197252], [-38.531073653670234, -3.830682323257201], [-38.52844666128526, -3.8294243349491945], [-38.52626845386732, -3.8272105871423383], [-38.52406836873259, -3.8261064722431537], [-38.52280530036606, -3.824878267991715], [-38.52141296071024, -3.8245683957386434], [-38.520516213370975, -3.821986747332177], [-38.5194359648158, -3.8214488958849486], [-38.51902268057834, -3.8206198375613782], [-38.51962306308772, -3.8180281420548217], [-38.51888362200705, -3.815619351246425], [-38.51551173115727, -3.812633491574246], [-38.51474548459094, -3.810064902953864], [-38.515198852443895, -3.809423935963873], [-38.514898184514934, -3.807782839669957], [-38.515209507290535, -3.8072257319382734], [-38.514671468754216, -3.8064762818685005], [-38.51541877716629, -3.804897628524328], [-38.5146802672145, -3.804227587800012], [-38.51516758851428, -3.8035361486880244], [-38.51501624263114, -3.8011535649536166], [-38.51544948515273, -3.800538461702267], [-38.514269720776625, -3.799086839290998], [-38.51436645495278, -3.7980045136202163], [-38.51309899178475, -3.797213628963499], [-38.51305039954207, -3.7964726604987837], [-38.51451775597355, -3.794842660570093], [-38.51469698142978, -3.7934290406249236], [-38.51381797786054, -3.7923366978119817], [-38.51415619144432, -3.791994818695657], [-38.51516380878408, -3.792294539375917], [-38.51536352923816, -3.790176593499536], [-38.514949622701884, -3.7887992450601304], [-38.513665513959644, -3.7885839400670256], [-38.51314565820637, -3.787922227221538], [-38.51295393060162, -3.7858509228317465], [-38.51349409040594, -3.7839023116801376], [-38.512620262622896, -3.7836508741485475], [-38.514803279473625, -3.778095889092256], [-38.51791949521744, -3.778932418769691], [-38.51822189937247, -3.770056242488891], [-38.51707029629363, -3.7698824619500755], [-38.51899789489604, -3.760065813798269], [-38.51798076036297, -3.760185205020221], [-38.516546686017826, -3.7615791090827355], [-38.51403161269347, -3.7624857138564014], [-38.510147908198235, -3.7627991693413287], [-38.50610753514701, -3.76241755926774], [-38.50851267432255, -3.7674981946639825], [-38.50946612289334, -3.7713527008165686], [-38.50592511602904, -3.7723528666090886], [-38.502209474827595, -3.7755454373671005], [-38.49972913941947, -3.7763626248529594], [-38.49887366858245, -3.779368687624664], [-38.496454026600865, -3.780634126644404], [-38.49487250960741, -3.7830115309034973], [-38.493965324708874, -3.7832815152883073], [-38.49491606138272, -3.7865309188091585], [-38.4930354329781, -3.7870434238739237], [-38.490797981870664, -3.786736978718283], [-38.48573153467276, -3.7873687290037505], [-38.48067771822628, -3.7869236167748404], [-38.479358556294635, -3.801975253372647], [-38.465887783390514, -3.800827154470929], [-38.46531355100423, -3.805208075869318], [-38.46160374004, -3.807793797721316], [-38.45483717349652, -3.806341440946266], [-38.4459955322625, -3.8052123306589287]]]}}, {"type": "Feature", "properties": {"nome": "Distrito 5", "num": 5, "romano": "V", "regionais": [5, 10], "cor": "#C9A24B"}, "geometry": {"type": "Polygon", "coordinates": [[[-38.576202800912064, -3.77678001545018], [-38.58344884813546, -3.785093815458273], [-38.58482583432061, -3.787322784196668], [-38.58861850129702, -3.791002593987046], [-38.58636982584255, -3.796626906735903], [-38.584179480709594, -3.794241032105012], [-38.583012129294055, -3.7953582221517745], [-38.57810127691845, -3.7900653970549376], [-38.57813576486225, -3.790713842271446], [-38.574657354889716, -3.7908283849661624], [-38.57442231228063, -3.7914589710444333], [-38.57173440361909, -3.7905611081100856], [-38.570245298957474, -3.7887384737940777], [-38.5657376864871, -3.787537053470042], [-38.56528196226811, -3.7870339204622536], [-38.56062899647334, -3.7879944369878245], [-38.56349523344792, -3.795561787081215], [-38.56177582208257, -3.799787467191588], [-38.55800812169829, -3.806130589026451], [-38.55461497768262, -3.809472771926338], [-38.55869382930599, -3.8229155262889942], [-38.55918692151661, -3.8268628504295927], [-38.55952487504659, -3.8267538326080195], [-38.561467536146786, -3.832333316202496], [-38.566618320735735, -3.8306220487253886], [-38.57338846833148, -3.825256510734846], [-38.57405379820651, -3.8239656009018064], [-38.57822092656585, -3.8226104871552833], [-38.58346382139652, -3.8389841922513006], [-38.584233422831836, -3.8393892699973913], [-38.5870708723357, -3.838665265350875], [-38.58759956612437, -3.8389112607079174], [-38.59451524105805, -3.833947136340718], [-38.597585427705084, -3.832905044178997], [-38.61469531591698, -3.82393494947915], [-38.614149464046555, -3.8228570182802724], [-38.61786100834016, -3.8209508951084517], [-38.6181346705261, -3.8212180055477805], [-38.62250026094677, -3.816965684754223], [-38.621520133794554, -3.81525911081172], [-38.62806691830319, -3.810371186456766], [-38.63052704042061, -3.809744072439748], [-38.62976770372256, -3.8065366543204795], [-38.63772610899869, -3.804688224024534], [-38.63790293726389, -3.8013953724850444], [-38.63568390468173, -3.8001218843573064], [-38.634363834601345, -3.7977021038027394], [-38.63521664066914, -3.7966508778294044], [-38.63513271255231, -3.795634394853341], [-38.63568061673212, -3.794742224366986], [-38.63550906047277, -3.793696221007237], [-38.63487565537446, -3.7933730470299585], [-38.635273465312856, -3.791958352466221], [-38.63342927341347, -3.790580853445881], [-38.63154429731426, -3.783687416063854], [-38.62802830811103, -3.784677680233375], [-38.62745186149969, -3.782629767612926], [-38.626009004865736, -3.7830243083808224], [-38.62544765568982, -3.780958553166092], [-38.622516371598316, -3.7817875020266016], [-38.62119309176759, -3.777058916670197], [-38.60206585671392, -3.7747470369662017], [-38.60026024880883, -3.7731755990494285], [-38.59834297318812, -3.7732188668918316], [-38.59783110216273, -3.772002099244723], [-38.59611786679404, -3.772875524892613], [-38.595561985770026, -3.771775115155023], [-38.592654301852946, -3.7740369559053972], [-38.59094750187371, -3.7725174107246424], [-38.5886407648302, -3.7740654133411176], [-38.58667675091096, -3.7739116467668294], [-38.58473769345246, -3.773117001748078], [-38.58203149491353, -3.7752328565405606], [-38.576202800912064, -3.77678001545018]]]}}, {"type": "Feature", "properties": {"nome": "Distrito 4", "num": 4, "romano": "IV", "regionais": [4, 8], "cor": "#2E8B8B"}, "geometry": {"type": "Polygon", "coordinates": [[[-38.52392831199689, -3.7369035332867266], [-38.51707029629363, -3.7698824619500755], [-38.51822189937247, -3.770056242488891], [-38.51791949521744, -3.778932418769691], [-38.514803279473625, -3.778095889092256], [-38.512620262622896, -3.7836508741485475], [-38.51349409040594, -3.7839023116801376], [-38.51295393060162, -3.7858509228317465], [-38.51314565820637, -3.787922227221538], [-38.513665513959644, -3.7885839400670256], [-38.514949622701884, -3.7887992450601304], [-38.51536352923816, -3.790176593499536], [-38.51516380878408, -3.792294539375917], [-38.51415619144432, -3.791994818695657], [-38.51381797786054, -3.7923366978119817], [-38.51469698142978, -3.7934290406249236], [-38.51451775597355, -3.794842660570093], [-38.51305039954207, -3.7964726604987837], [-38.51309899178475, -3.797213628963499], [-38.51436645495278, -3.7980045136202163], [-38.514269720776625, -3.799086839290998], [-38.51544948515273, -3.800538461702267], [-38.51501624263114, -3.8011535649536166], [-38.51516758851428, -3.8035361486880244], [-38.5146802672145, -3.804227587800012], [-38.51541877716629, -3.804897628524328], [-38.514671468754216, -3.8064762818685005], [-38.515209507290535, -3.8072257319382734], [-38.514898184514934, -3.807782839669957], [-38.515198852443895, -3.809423935963873], [-38.51474548459094, -3.810064902953864], [-38.51551173115727, -3.812633491574246], [-38.51642567430424, -3.8130746911294664], [-38.516914215141874, -3.814146617450385], [-38.51809113087896, -3.814550095510625], [-38.519299673486834, -3.816552546304063], [-38.51962306308772, -3.8180281420548217], [-38.51901998650023, -3.8203793776245782], [-38.51930176427565, -3.8212661092046445], [-38.520516213370975, -3.821986747332177], [-38.52143698145524, -3.8245897093887002], [-38.52280530036606, -3.824878267991715], [-38.52406836873259, -3.8261064722431537], [-38.52626845386732, -3.8272105871423383], [-38.52844666128526, -3.8294243349491945], [-38.531073653670234, -3.830682323257201], [-38.53123237942164, -3.831710073197252], [-38.53042613051759, -3.8336785240190285], [-38.53231828688566, -3.8363124362120473], [-38.53252660693471, -3.8373616528503907], [-38.534242072788, -3.8390292532052963], [-38.53430876150904, -3.8401181394226156], [-38.535330763405575, -3.84039579526043], [-38.535290577017015, -3.842758295278468], [-38.535852159342866, -3.8431525299909146], [-38.53826456228184, -3.8404442523896107], [-38.53949365701642, -3.842011644051178], [-38.54135871249774, -3.8533672705419098], [-38.56557068385207, -3.843868134846302], [-38.56547289241879, -3.8435680103819574], [-38.56739828524647, -3.8434491929570536], [-38.58334879260742, -3.8393935357157942], [-38.57822092656585, -3.8226104871552833], [-38.57405379820651, -3.8239656009018064], [-38.57338846833148, -3.825256510734846], [-38.566618320735735, -3.8306220487253886], [-38.561467536146786, -3.832333316202496], [-38.55952487504659, -3.8267538326080195], [-38.55918692151661, -3.8268628504295927], [-38.55869382930599, -3.8229155262889942], [-38.55461497768262, -3.809472771926338], [-38.55800812169829, -3.806130589026451], [-38.56177582208257, -3.799787467191588], [-38.56349523344792, -3.795561787081215], [-38.56062899647334, -3.7879944369878245], [-38.56528196226811, -3.7870339204622536], [-38.5657376864871, -3.787537053470042], [-38.570245298957474, -3.7887384737940777], [-38.57173440361909, -3.7905611081100856], [-38.57442231228063, -3.7914589710444333], [-38.574657354889716, -3.7908283849661624], [-38.57813576486225, -3.790713842271446], [-38.57810127691845, -3.7900653970549376], [-38.583012129294055, -3.7953582221517745], [-38.584179480709594, -3.794241032105012], [-38.58636982584255, -3.796626906735903], [-38.58861850129702, -3.791002593987046], [-38.58482583432061, -3.787322784196668], [-38.58344884813546, -3.785093815458273], [-38.57085757332312, -3.7710269948077215], [-38.56968833522251, -3.7676143674734934], [-38.566708309072496, -3.7641390892147704], [-38.55981364078157, -3.767236381609462], [-38.55729329698106, -3.7613280989860143], [-38.55351561338283, -3.756947050825819], [-38.555408844202496, -3.7550245451525472], [-38.543328344680205, -3.742896598413444], [-38.54307829214871, -3.741412523869687], [-38.54364241957529, -3.7380073056694245], [-38.54159981394391, -3.7372105460820566], [-38.53817222533187, -3.7381333676580155], [-38.5374354295806, -3.7372465729578197], [-38.53618483752673, -3.7330447535346027], [-38.52392831199689, -3.7369035332867266]]]}}, {"type": "Feature", "properties": {"nome": "Distrito 3", "num": 3, "romano": "III", "regionais": [3, 11], "cor": "#E0612B"}, "geometry": {"type": "Polygon", "coordinates": [[[-38.53618483752673, -3.7330447535346027], [-38.5374354295806, -3.7372465729578197], [-38.53817222533187, -3.7381333676580155], [-38.54159981394391, -3.7372105460820566], [-38.54364241957529, -3.7380073056694245], [-38.54307829214871, -3.741412523869687], [-38.543328344680205, -3.742896598413444], [-38.555408844202496, -3.7550245451525472], [-38.55351561338283, -3.756947050825819], [-38.55729329698106, -3.7613280989860143], [-38.55981364078157, -3.767236381609462], [-38.566708309072496, -3.7641390892147704], [-38.56968833522251, -3.7676143674734934], [-38.57085757332312, -3.7710269948077215], [-38.576202800912064, -3.77678001545018], [-38.58203149491353, -3.7752328565405606], [-38.58473769345246, -3.773117001748078], [-38.58667675091096, -3.7739116467668294], [-38.5886407648302, -3.7740654133411176], [-38.59094750187371, -3.7725174107246424], [-38.592654301852946, -3.7740369559053972], [-38.595561985770026, -3.771775115155023], [-38.59611786679404, -3.772875524892613], [-38.59783110216273, -3.772002099244723], [-38.59834297318812, -3.7732188668918316], [-38.60026024880883, -3.7731755990494285], [-38.60206585671392, -3.7747470369662017], [-38.62145316703303, -3.7770286759464495], [-38.61679290827527, -3.7688288516276045], [-38.61121677155302, -3.756173669562283], [-38.608667863591926, -3.7534346338579683], [-38.601332440602164, -3.748465566616856], [-38.598931068953405, -3.7422291359319617], [-38.59960306839103, -3.741611084536918], [-38.60078386260998, -3.7417220460855214], [-38.60119002362492, -3.741265029890221], [-38.60167862859597, -3.737505612289606], [-38.602305964138445, -3.736888936449781], [-38.601143555560625, -3.7344497674243544], [-38.60364485998781, -3.732236969085417], [-38.60599819428902, -3.727069357715126], [-38.60867682093685, -3.7255803284160223], [-38.60943242531667, -3.7240216427216852], [-38.61018522250637, -3.724225997084417], [-38.610451236516575, -3.7235481085808977], [-38.61350336644224, -3.722405093416211], [-38.61478021061347, -3.7227729305415522], [-38.61513249316862, -3.721649660587283], [-38.61619731665839, -3.72078724487456], [-38.61694331079165, -3.7209329006142338], [-38.61751230855272, -3.7220930549892937], [-38.61804143553442, -3.7206352426643616], [-38.6167231654983, -3.7197597062181407], [-38.61727159416323, -3.718807017808868], [-38.60625928729218, -3.7224803476736787], [-38.58497617098597, -3.728633954869877], [-38.584583707361794, -3.7316161602903324], [-38.571636970862556, -3.7258283986482907], [-38.56836749421331, -3.7212812781641116], [-38.56157178561387, -3.719373753358222], [-38.56099512637847, -3.721623734227403], [-38.558534395601725, -3.720990630824193], [-38.5493197466233, -3.7233301327614874], [-38.54894808598785, -3.723482112962613], [-38.54915782370267, -3.7245399225088174], [-38.546194447927114, -3.72466028761835], [-38.54579116658509, -3.7267249308634836], [-38.540248185763396, -3.7284220115985813], [-38.53992290681503, -3.7306349327889503], [-38.54054030604239, -3.731647830603988], [-38.53618483752673, -3.7330447535346027]]]}}, {"type": "Feature", "properties": {"nome": "Distrito 1", "num": 1, "romano": "I", "regionais": [1, 12], "cor": "#1F6F9E"}, "geometry": {"type": "Polygon", "coordinates": [[[-38.51115076362013, -3.7193495848516274], [-38.51755352234233, -3.7389135807028526], [-38.54054030604239, -3.731647830603988], [-38.53992290681503, -3.7306349327889503], [-38.540248185763396, -3.7284220115985813], [-38.54579116658509, -3.7267249308634836], [-38.546194447927114, -3.72466028761835], [-38.54915782370267, -3.7245399225088174], [-38.54894808598785, -3.723482112962613], [-38.5493197466233, -3.7233301327614874], [-38.558534395601725, -3.720990630824193], [-38.56099512637847, -3.721623734227403], [-38.56157178561387, -3.719373753358222], [-38.56836749421331, -3.7212812781641116], [-38.571636970862556, -3.7258283986482907], [-38.584583707361794, -3.7316161602903324], [-38.58497617098597, -3.728633954869877], [-38.60625928729218, -3.7224803476736787], [-38.617518957319184, -3.718676086264876], [-38.61860421545578, -3.719493883674294], [-38.619376069634534, -3.7194785573798206], [-38.62055219679426, -3.7167539182167624], [-38.619383400352135, -3.7148145184759724], [-38.618894753534505, -3.7121763675201067], [-38.61810503440358, -3.7114753678464716], [-38.61784525982033, -3.710310730884374], [-38.61834853732697, -3.7096993735359285], [-38.620637411826145, -3.7099503310182516], [-38.62108390542348, -3.709630667588489], [-38.62246941459049, -3.705227928012556], [-38.622566617103935, -3.70355760964602], [-38.6222321913362, -3.70287617665702], [-38.62104650265458, -3.7023791285203678], [-38.61173782350474, -3.703291965830325], [-38.606260763432225, -3.7023579977848464], [-38.60057764003004, -3.703487773537664], [-38.595581597011815, -3.70301972132028], [-38.590710896994565, -3.7002200950298363], [-38.58860234685545, -3.6980403994401607], [-38.58758319687193, -3.696405976324854], [-38.58762661357312, -3.692527374828704], [-38.58727000157694, -3.6917215898730387], [-38.58371235735661, -3.6938300040494862], [-38.581404256952204, -3.693818150075766], [-38.580911339595204, -3.692770501352819], [-38.581193692654026, -3.692087019577839], [-38.58069872646091, -3.6928138094571987], [-38.580665790821726, -3.6935305671125156], [-38.578305972314304, -3.6956837448956215], [-38.57746009527536, -3.695922627216864], [-38.57629710623509, -3.694658977683318], [-38.577210488280876, -3.695889939887419], [-38.57504049320528, -3.698590344278927], [-38.57398349651833, -3.698276497280599], [-38.57101284267268, -3.700646980745076], [-38.570469324043565, -3.6995818942425287], [-38.57085657868646, -3.7007020073011105], [-38.568141026687144, -3.702261236293282], [-38.56598435313458, -3.7030381064088838], [-38.56319344565662, -3.7031704409939707], [-38.56207394364823, -3.7004718615625793], [-38.56336333012609, -3.6986954878448675], [-38.56425569975069, -3.6987947956126543], [-38.563319572048854, -3.6985288717428935], [-38.56189941090081, -3.7004749649058555], [-38.56317793807728, -3.7036109013165275], [-38.562326441757214, -3.7043168636038732], [-38.55972891889559, -3.7051653290229014], [-38.55905948008188, -3.7038719492685197], [-38.559264575983946, -3.7046863458206576], [-38.55888315413061, -3.705152874626943], [-38.555911406128054, -3.7066156563187893], [-38.554742422590955, -3.704856237784867], [-38.55537747578915, -3.706310993438462], [-38.55366382928916, -3.7078311503399908], [-38.55225776869104, -3.708512559236059], [-38.5514689363162, -3.7071972013953967], [-38.55194786140063, -3.7087637188627602], [-38.54889710922641, -3.710629220658608], [-38.5476499746006, -3.7087745469681748], [-38.548420580508655, -3.7107486638140585], [-38.54616828630483, -3.7121358119496906], [-38.5453568875768, -3.7111165165521096], [-38.54577512226412, -3.7121235772625516], [-38.54349886582102, -3.7136901924986887], [-38.542165006489704, -3.7129834057545343], [-38.54138046906834, -3.7111108778989164], [-38.542390655679355, -3.7142521394210353], [-38.53936360083408, -3.7163689320781867], [-38.5387085553494, -3.7160214684531363], [-38.53642048996531, -3.7173966276388546], [-38.535231519589104, -3.717222032554801], [-38.53074893504254, -3.7191170113467997], [-38.53007969823325, -3.7182566452991423], [-38.527973306634216, -3.7187923783693324], [-38.5299787902053, -3.718517405651803], [-38.53045339480569, -3.719090346947881], [-38.52850884014339, -3.7198338472552357], [-38.5278234206921, -3.719370018069396], [-38.5255924949053, -3.7199449991521782], [-38.52474443347771, -3.7194967315299508], [-38.52505971908766, -3.7189484351240116], [-38.524518174558224, -3.71924529316993], [-38.52401826242755, -3.7184551586753947], [-38.524757134409036, -3.7179768092930057], [-38.52386343514845, -3.718335387176572], [-38.524367093453115, -3.7174162127761194], [-38.523666140684476, -3.7177461156181835], [-38.523499854469165, -3.7173141218435126], [-38.52261396276164, -3.718130486020491], [-38.522309732211234, -3.717468398800419], [-38.526509671760124, -3.715584187106697], [-38.52759273449662, -3.7160273807013975], [-38.52655470534017, -3.71540143334549], [-38.52104026057917, -3.717855105403894], [-38.520483731944736, -3.716099390543231], [-38.52056563958441, -3.717290985743546], [-38.520222482376084, -3.717394919764512], [-38.519701555017335, -3.715782553182702], [-38.519867488156564, -3.7177061214057914], [-38.517001838147706, -3.718354263777479], [-38.51639399096167, -3.7158320324461944], [-38.516858905175766, -3.7183901003079973], [-38.513320398865275, -3.7187734242140165], [-38.51178012013594, -3.7185894607786505], [-38.51119112545043, -3.7135056580430716], [-38.51150485694875, -3.718711380967154], [-38.51115076362013, -3.7193495848516274]]]}}]}